OBJECT_NAME,OBJECT_ID,EPOCH,MEAN_MOTION,ECCENTRICITY,INCLINATION,RA_OF_ASC_NODE,ARG_OF_PERICENTER,MEAN_ANOMALY,EPHEMERIS_TYPE,CLASSIFICATION_TYPE,NORAD_CAT_ID,ELEMENT_SET_NO,REV_AT_EPOCH,BSTAR,MEAN_MOTION_DOT,MEAN_MOTION_DDOT
FENGYUN 1C DEB,1999-025ALP,2026-06-12T02:13:47.665920,14.15007001,.00901481,99.2122,211.6514,124.4547,291.2293,0,U,30573,999,98761,.1409192E-2,.2791E-4,0
FENGYUN 1C DEB,1999-025ALQ,2026-06-01T09:55:43.198752,13.78554577,.02156273,99.3155,317.8339,256.9272,100.7732,0,U,30574,999,96119,.2160279E-2,.2558E-4,0
FENGYUN 1C DEB,1999-025ALR,2026-06-12T19:49:56.270208,14.41150242,.0053942,99.1709,272.6882,63.6215,58.4752,0,U,30575,999,830,.68768E-3,.2206E-4,0
FENGYUN 1C DEB,1999-025ALT,2026-06-12T20:32:35.547072,14.11453448,.0030727,98.7476,198.3713,124.8624,55.9599,0,U,30577,999,99353,.38778E-3,.663E-5,0
FENGYUN 1C DEB,1999-025ALV,2026-06-11T08:19:54.566112,14.05439913,.0051656,98.7885,186.6976,318.0324,57.4332,0,U,30579,999,98994,.31633E-3,.476E-5,0
FENGYUN 1C DEB,1999-025ALZ,2026-06-11T14:05:59.828928,14.17484017,.0193789,99.1305,29.0579,163.4168,197.3464,0,U,30594,999,75,.11737E-3,.239E-5,0
FENGYUN 1C DEB,1999-025AMB,2026-06-12T05:40:43.356288,14.34776324,.02486207,98.4186,161.5337,108.2077,317.0940,0,U,30596,999,1162,.21554288E-3,.817E-5,0
FENGYUN 1C DEB,1999-025AMC,2026-06-10T15:49:46.694208,15.29255694,.00123606,98.9392,132.3662,287.1492,72.8390,0,U,30597,999,1227,.54162869E-2,.157087E-2,0
FENGYUN 1C DEB,1999-025AME,2026-06-12T07:36:27.916992,14.20448553,.03003791,98.5957,175.2148,178.4520,181.7660,0,U,30599,999,99744,.36665482E-3,.119E-4,0
FENGYUN 1C DEB,1999-025AMF,2026-06-12T01:47:10.911840,14.10630826,.03218406,98.3931,100.7864,87.8719,275.9267,0,U,30600,999,96986,.29031619E-2,.8387E-4,0
FENGYUN 1C DEB,1999-025AMJ,2026-06-04T23:58:50.088576,13.84695309,.01851001,98.3968,165.7894,88.1415,336.7526,0,U,30603,999,97287,.1405602E-2,.177E-4,0
FENGYUN 1C DEB,1999-025AMK,2026-06-08T20:18:45.146304,14.23920571,.02083868,98.3787,191.7101,204.7143,330.2053,0,U,30604,999,342,.2073465E-3,.549E-5,0
FENGYUN 1C DEB,1999-025AMM,2026-06-11T23:54:11.246400,14.59325495,.02068067,98.0887,173.5990,291.5175,121.3647,0,U,30606,999,1885,.44318456E-3,.2767E-4,0
FENGYUN 1C DEB,1999-025AMP,2026-06-12T18:57:50.211936,14.29389122,.0014119,98.6885,231.0066,10.0511,105.6233,0,U,30608,999,38,.44452E-3,.109E-4,0
FENGYUN 1C DEB,1999-025AMQ,2026-06-09T17:25:23.554848,14.12708390,.0112779,98.5684,74.4851,263.5938,95.2382,0,U,30609,999,98254,.10631E-2,.2052E-4,0
FENGYUN 1C DEB,1999-025AMX,2026-06-09T19:47:40.617024,13.36447208,.03841326,98.6257,197.0238,165.8044,195.4252,0,U,30616,999,94092,.17988865E-2,.1381E-4,0
FENGYUN 1C DEB,1999-025ANA,2026-06-11T20:15:42.586560,14.41572389,.02125648,98.2786,185.5211,230.7591,127.4566,0,U,30619,999,1547,.13866807E-3,.537E-5,0
FENGYUN 1C DEB,1999-025ANC,2026-06-10T18:37:54.738336,14.04930399,.01339095,98.7030,102.7465,158.4846,262.9555,0,U,30621,999,98117,.15254279E-2,.2617E-4,0
FENGYUN 1C DEB,1999-025AND,2026-06-10T22:54:02.680416,14.34028336,.00693035,100.9916,226.4713,243.3338,292.6007,0,U,30622,999,71378,.1979048E-2,.5619E-4,0
FENGYUN 1C DEB,1999-025ANE,2026-06-11T05:22:46.329312,13.29500025,.04034826,98.8439,320.4485,22.3734,157.6207,0,U,30623,999,93614,.26157677E-3,.155E-5,0
FENGYUN 1C DEB,1999-025ANF,2026-06-12T05:37:17.214528,14.71564295,.00169654,98.8824,265.3433,87.7712,272.5435,0,U,30624,999,148,.45682943E-2,.2851E-3,0
FENGYUN 1C DEB,1999-025ANG,2026-06-10T20:56:36.002688,14.45887705,.00483297,98.9230,131.6071,120.2278,240.3710,0,U,30625,999,99292,.24407513E-2,.8761E-4,0
FENGYUN 1C DEB,1999-025ANK,2026-06-12T02:32:07.289952,14.75034752,.00236685,99.3424,110.6328,47.8945,312.4267,0,U,30628,999,1133,.19808427E-2,.13354E-3,0
FENGYUN 1C DEB,1999-025ANL,2026-06-11T02:22:55.442784,14.65235770,.00043434,99.2518,284.5780,5.7550,173.9069,0,U,30629,999,525,.21179792E-2,.11369E-3,0
FENGYUN 1C DEB,1999-025ANM,2026-06-12T01:48:45.612288,14.23071822,.00243803,99.1828,348.6696,277.4503,211.4651,0,U,30630,999,99791,.52840231E-3,.1147E-4,0
FENGYUN 1C DEB,1999-025ANP,2026-06-11T09:25:27.393888,14.70892234,.0013673,98.8326,312.5251,322.1992,91.8447,0,U,30632,999,339,.2077E-2,.12692E-3,0
FENGYUN 1C DEB,1999-025ANQ,2026-06-09T13:00:12.551616,14.04876116,.0131286,98.4095,17.6472,112.6061,309.4988,0,U,30633,999,98402,.90467077E-3,.1531E-4,0
FENGYUN 1C DEB,1999-025ANR,2026-06-10T22:00:08.317152,14.11187494,.01170338,99.3044,155.9759,316.0303,101.0170,0,U,30634,999,98157,.14158891E-2,.2675E-4,0
FENGYUN 1C DEB,1999-025ANW,2026-06-11T07:19:12.074304,14.35358988,.0066536,99.0226,287.0009,116.5169,244.2858,0,U,30639,999,99307,.20711786E-2,.605E-4,0
FENGYUN 1C DEB,1999-025ANX,2026-06-12T05:00:38.580768,14.15606992,.00776151,99.0439,242.0151,306.5031,108.8330,0,U,30640,999,99012,.97304919E-3,.1915E-4,0
