FENGYUN 1C DEB          
1 30573U 99025ALP 26163.09291280  .00002791  00000+0  14092-2 0  9998
2 30573  99.2122 211.6514 0090148 124.4547 291.2293 14.15007001987612
FENGYUN 1C DEB          
1 30574U 99025ALQ 26152.41369443  .00002558  00000+0  21603-2 0  9997
2 30574  99.3155 317.8339 0215627 256.9272 100.7732 13.78554577961191
FENGYUN 1C DEB          
1 30575U 99025ALR 26163.82634572  .00002206  00000+0  68768-3 0  9997
2 30575  99.1709 272.6882 0053942  63.6215  58.4752 14.41150242  8304
FENGYUN 1C DEB          
1 30577U 99025ALT 26163.85596698  .00000663  00000+0  38778-3 0  9991
2 30577  98.7476 198.3713 0030727 124.8624  55.9599 14.11453448993539
FENGYUN 1C DEB          
1 30579U 99025ALV 26162.34715933  .00000476  00000+0  31633-3 0  9996
2 30579  98.7885 186.6976 0051656 318.0324  57.4332 14.05439913989940
FENGYUN 1C DEB          
1 30594U 99025ALZ 26162.58749802  .00000239  00000+0  11737-3 0  9991
2 30594  99.1305  29.0579 0193789 163.4168 197.3464 14.17484017   751
FENGYUN 1C DEB          
1 30596U 99025AMB 26163.23661292  .00000817  00000+0  21554-3 0  9992
2 30596  98.4186 161.5337 0248620 108.2077 317.0940 14.34776324 11629
FENGYUN 1C DEB          
1 30597U 99025AMC 26161.65956822  .00157087  00000+0  54163-2 0  9996
2 30597  98.9392 132.3662 0012360 287.1492  72.8390 15.29255694 12273
FENGYUN 1C DEB          
1 30599U 99025AME 26163.31698978  .00001190  00000+0  36665-3 0  9999
2 30599  98.5957 175.2148 0300379 178.4520 181.7660 14.20448553997446
FENGYUN 1C DEB          
1 30600U 99025AMF 26163.07443185  .00008387  00000+0  29032-2 0  9997
2 30600  98.3931 100.7864 0321840  87.8719 275.9267 14.10630826969865
FENGYUN 1C DEB          
1 30603U 99025AMJ 26155.99919084  .00001770  00000+0  14056-2 0  9997
2 30603  98.3968 165.7894 0185100  88.1415 336.7526 13.84695309972872
FENGYUN 1C DEB          
1 30604U 99025AMK 26159.84635586  .00000549  00000+0  20735-3 0  9993
2 30604  98.3787 191.7101 0208386 204.7143 330.2053 14.23920571  3424
FENGYUN 1C DEB          
1 30606U 99025AMM 26162.99596350  .00002767  00000+0  44318-3 0  9997
2 30606  98.0887 173.5990 0206806 291.5175 121.3647 14.59325495 18856
FENGYUN 1C DEB          
1 30608U 99025AMP 26163.79016449  .00001090  00000+0  44452-3 0  9991
2 30608  98.6885 231.0066 0014119  10.0511 105.6233 14.29389122   387
FENGYUN 1C DEB          
1 30609U 99025AMQ 26160.72596707  .00002052  00000+0  10631-2 0  9992
2 30609  98.5684  74.4851 0112779 263.5938  95.2382 14.12708390982544
FENGYUN 1C DEB          
1 30616U 99025AMX 26160.82477566  .00001381  00000+0  17989-2 0  9999
2 30616  98.6257 197.0238 0384132 165.8044 195.4252 13.36447208940924
FENGYUN 1C DEB          
1 30619U 99025ANA 26162.84424290  .00000537  00000+0  13867-3 0  9996
2 30619  98.2786 185.5211 0212564 230.7591 127.4566 14.41572389 15473
FENGYUN 1C DEB          
1 30621U 99025ANC 26161.77632799  .00002617  00000+0  15254-2 0  9997
2 30621  98.7030 102.7465 0133909 158.4846 262.9555 14.04930399981179
FENGYUN 1C DEB          
1 30622U 99025AND 26161.95419769  .00005619  00000+0  19790-2 0  9992
2 30622 100.9916 226.4713 0069303 243.3338 292.6007 14.34028336713789
FENGYUN 1C DEB          
1 30623U 99025ANE 26162.22414733  .00000155  00000+0  26158-3 0  9997
2 30623  98.8439 320.4485 0403482  22.3734 157.6207 13.29500025936143
FENGYUN 1C DEB          
1 30624U 99025ANF 26163.23422702  .00028510  00000+0  45683-2 0  9993
2 30624  98.8824 265.3433 0016965  87.7712 272.5435 14.71564295  1486
FENGYUN 1C DEB          
1 30625U 99025ANG 26161.87263892  .00008761  00000+0  24408-2 0  9993
2 30625  98.9230 131.6071 0048329 120.2278 240.3710 14.45887705992923
FENGYUN 1C DEB          
1 30628U 99025ANK 26163.10563993  .00013354  00000+0  19808-2 0  9991
2 30628  99.3424 110.6328 0023668  47.8945 312.4267 14.75034752 11336
FENGYUN 1C DEB          
1 30629U 99025ANL 26162.09925281  .00011369  00000+0  21180-2 0  9991
2 30629  99.2518 284.5780 0004343   5.7550 173.9069 14.65235770  5253
FENGYUN 1C DEB          
1 30630U 99025ANM 26163.07552792  .00001147  00000+0  52840-3 0  9996
2 30630  99.1828 348.6696 0024380 277.4503 211.4651 14.23071822997913
FENGYUN 1C DEB          
1 30632U 99025ANP 26162.39267817  .00012692  00000+0  20770-2 0  9996
2 30632  98.8326 312.5251 0013673 322.1992  91.8447 14.70892234  3397
FENGYUN 1C DEB          
1 30633U 99025ANQ 26160.54181194  .00001531  00000+0  90467-3 0  9996
2 30633  98.4095  17.6472 0131286 112.6061 309.4988 14.04876116984029
FENGYUN 1C DEB          
1 30634U 99025ANR 26161.91676293  .00002675  00000+0  14159-2 0  9991
2 30634  99.3044 155.9759 0117033 316.0303 101.0170 14.11187494981579
FENGYUN 1C DEB          
1 30639U 99025ANW 26162.30500086  .00006050  00000+0  20712-2 0  9999
2 30639  99.0226 287.0009 0066536 116.5169 244.2858 14.35358988993077
FENGYUN 1C DEB          
1 30640U 99025ANX 26163.20877987  .00001915  00000+0  97305-3 0  9996
2 30640  99.0439 242.0151 0077615 306.5031 108.8330 14.15606992990125
